KUIPER-00071            
1 64818U 25151C   26022.33032487 -.00015934  00000+0 -20675-2 0  9998
2 64818  51.8999 148.0775 0007290  84.8461 275.3333 14.79880252 28407
KUIPER-00072            
1 64819U 25151D   26022.44508161  .00006975  00000+0  90496-3 0  9990
2 64819  51.8968 127.4832 0000524  77.8806 282.2216 14.81675804 28705
KUIPER-00073            
1 64820U 25151E   26022.50002314 -.00040232  00000+0 -52682-2 0  9998
2 64820  51.8996 147.3239 0003902 119.5264 244.1327 14.80019324  5360
KUIPER-00074            
1 64821U 25151F   26022.31022530  .00006400  00000+0  86527-3 0  9993
2 64821  51.9001 135.6805 0012973 117.1364 243.0923 14.80019142 28577
KUIPER-00075            
1 64822U 25151G   26022.46862082  .00044075  00000+0  10936-2 0  9994
2 64822  51.8730  86.4783 0003258 106.7706 253.3639 15.39917258 29270
KUIPER-00076            
1 64823U 25151H   26021.63228377  .00012067  00000+0  16046-2 0  9990
2 64823  51.8993 141.1727 0002144 143.0744 217.0366 14.80049701 28444
KUIPER-00077            
1 64824U 25151J   26022.50472176 -.00017679  00000+0 -22963-2 0  9997
2 64824  51.9012 142.3227 0005825  83.2595 276.9030 14.79914532 28504
KUIPER-00078            
1 64825U 25151K   26022.47363061 -.00005312  00000+0 -66740-3 0  9999
2 64825  51.9026 139.9470 0002715 159.2156 200.8917 14.79984515 28535
